[{"OBJECT_NAME":"LEMUR-2-WILSON","OBJECT_ID":"2025-009CP","EPOCH":"2026-03-09T05:30:24.962112","MEAN_MOTION":14.94676648,"ECCENTRICITY":0.00035998,"INCLINATION":97.7068,"RA_OF_ASC_NODE":148.4663,"ARG_OF_PERICENTER":38.3481,"MEAN_ANOMALY":321.7994,"EPHEMERIS_TYPE":0,"CLASSIFICATION_TYPE":"U","NORAD_CAT_ID":62694,"ELEMENT_SET_NO":999,"REV_AT_EPOCH":6242,"BSTAR":0.00038001,"MEAN_MOTION_DOT":4.065e-5,"MEAN_MOTION_DDOT":0},{"OBJECT_NAME":"COSMOS 1275 DEB","OBJECT_ID":"1981-053PM","EPOCH":"2026-02-19T02:57:31.850784","MEAN_MOTION":14.92096879,"ECCENTRICITY":0.00088143,"INCLINATION":82.7617,"RA_OF_ASC_NODE":355.4493,"ARG_OF_PERICENTER":71.846,"MEAN_ANOMALY":288.372,"EPHEMERIS_TYPE":0,"CLASSIFICATION_TYPE":"U","NORAD_CAT_ID":42101,"ELEMENT_SET_NO":999,"REV_AT_EPOCH":59624,"BSTAR":0.0036692581,"MEAN_MOTION_DOT":0.00037484,"MEAN_MOTION_DDOT":0}]
